[{"OBJECT_NAME":"SUPERVIEW NEO-2 02","OBJECT_ID":"2022-082C","EPOCH":"2026-03-10T00:20:09.225888","MEAN_MOTION":15.24501295,"ECCENTRICITY":0.00016181,"INCLINATION":97.3937,"RA_OF_ASC_NODE":80.3251,"ARG_OF_PERICENTER":90.4138,"MEAN_ANOMALY":269.7285,"EPHEMERIS_TYPE":0,"CLASSIFICATION_TYPE":"U","NORAD_CAT_ID":53130,"ELEMENT_SET_NO":999,"REV_AT_EPOCH":20310,"BSTAR":-4.28097e-7,"MEAN_MOTION_DOT":-8.1e-7,"MEAN_MOTION_DDOT":0},{"OBJECT_NAME":"COSMOS 1461","OBJECT_ID":"1983-044A","EPOCH":"2026-03-09T23:27:40.254336","MEAN_MOTION":15.35034079,"ECCENTRICITY":0.00529955,"INCLINATION":64.9902,"RA_OF_ASC_NODE":19.3405,"ARG_OF_PERICENTER":227.9657,"MEAN_ANOMALY":131.6963,"EPHEMERIS_TYPE":0,"CLASSIFICATION_TYPE":"U","NORAD_CAT_ID":14064,"ELEMENT_SET_NO":999,"REV_AT_EPOCH":20189,"BSTAR":0.00068784348,"MEAN_MOTION_DOT":0.00024451,"MEAN_MOTION_DDOT":0}]
